[{"OBJECT_NAME":"VSP RF C1","OBJECT_ID":"2024-043AQ","EPOCH":"2026-03-09T21:56:05.358624","MEAN_MOTION":15.29409663,"ECCENTRICITY":0.00093965,"INCLINATION":97.5441,"RA_OF_ASC_NODE":205.1792,"ARG_OF_PERICENTER":219.6172,"MEAN_ANOMALY":140.4382,"EPHEMERIS_TYPE":0,"CLASSIFICATION_TYPE":"U","NORAD_CAT_ID":59136,"ELEMENT_SET_NO":999,"REV_AT_EPOCH":11190,"BSTAR":0.00026222052,"MEAN_MOTION_DOT":7.409e-5,"MEAN_MOTION_DDOT":0},{"OBJECT_NAME":"STARLINK-31640","OBJECT_ID":"2024-090U","EPOCH":"2026-03-09T07:46:26.896224","MEAN_MOTION":15.2757173,"ECCENTRICITY":0.00018596,"INCLINATION":42.9976,"RA_OF_ASC_NODE":185.5973,"ARG_OF_PERICENTER":191.7433,"MEAN_ANOMALY":168.3375,"EPHEMERIS_TYPE":0,"CLASSIFICATION_TYPE":"U","NORAD_CAT_ID":59748,"ELEMENT_SET_NO":999,"REV_AT_EPOCH":10338,"BSTAR":-2.9843135e-5,"MEAN_MOTION_DOT":-1.083e-5,"MEAN_MOTION_DDOT":0}]
